STARLINK-36487          
1 67416U 26005N   26025.58334491 -.01525823  00000+0 -98457-2 0  9991
2 67416  42.9997 127.2626 0001318 292.2530 184.6129 15.78160028  3257
STARLINK-36374          
1 67417U 26005P   26025.58334491 -.01536236  00000+0 -99363-2 0  9999
2 67417  42.9998 127.2576 0001280 289.8789 189.0420 15.78129844  3253
STARLINK-36455          
1 67418U 26005Q   26025.58334491 -.01539498  00000+0 -99896-2 0  9994
2 67418  42.9998 127.2520 0001315 287.3036 193.7642 15.78065134  3259
STARLINK-36424          
1 67419U 26005R   26025.58334491 -.01550384  00000+0 -10096-1 0  9996
2 67419  42.9996 127.2468 0001517 285.1671 198.0368 15.78007922  3258
STARLINK-35564          
1 67420U 26005S   26025.58334491 -.01551649  00000+0 -10122-1 0  9993
2 67420  42.9998 127.2419 0001235 292.4280 192.8102 15.77973666  3144
STARLINK-36431          
1 67421U 26005T   26025.58334491 -.01568624  00000+0 -10259-1 0  9996
2 67421  43.0000 127.2366 0001526 291.6361 195.6413 15.77948466  3041
STARLINK-36418          
1 67422U 26005U   26025.58334491 -.01569736  00000+0 -10273-1 0  9998
2 67422  42.9998 127.2318 0001255 294.5960 194.6241 15.77940441  3200
STARLINK-36465          
1 67423U 26005V   26025.58334491 -.01575580  00000+0 -10344-1 0  9992
2 67423  43.0001 127.2265 0001486 288.5771 202.7650 15.77880332  2990
STARLINK-36362          
1 67424U 26005W   26025.58334491 -.01584183  00000+0 -10431-1 0  9999
2 67424  43.0000 127.2215 0001296 292.0279 201.3865 15.77836032  3258
STARLINK-36447          
1 67425U 26005X   26025.58334491 -.01589754  00000+0 -10501-1 0  9997
2 67425  43.0000 127.2158 0001437 278.8930 216.6337 15.77774663  3252
STARLINK-36146          
1 67426U 26005Y   26025.58334491 -.01599502  00000+0 -10596-1 0  9994
2 67426  43.0000 127.2106 0001309 286.8924 210.6908 15.77733166  3202
STARLINK-36459          
1 67427U 26005Z   26025.58334491 -.01642827  00000+0 -10698-1 0  9997
2 67427  42.9998 127.2051 0001207 287.6951 211.9223 15.77700174  3175
