CCSDS_OMM_VERS = 2.0
CREATION_DATE  = 
ORIGINATOR     = 

OBJECT_NAME    = STARLINK-36487
OBJECT_ID      = 2026-005N
CENTER_NAME    = EARTH
REF_FRAME      = TEME
TIME_SYSTEM    = UTC
MEAN_ELEMENT_THEORY = SGP/SGP4

EPOCH          = 2026-01-25T14:00:01.000224
MEAN_MOTION    = 15.78160028
ECCENTRICITY   = .00013186
INCLINATION    = 42.9997
RA_OF_ASC_NODE = 127.2626
ARG_OF_PERICENTER = 292.2530
MEAN_ANOMALY   = 184.6129

EPHEMERIS_TYPE = 0
CLASSIFICATION_TYPE = U
NORAD_CAT_ID   = 67416
ELEMENT_SET_NO = 999
REV_AT_EPOCH   = 325
BSTAR          = -.98456592E-2
MEAN_MOTION_DOT = -.1525823E-1
MEAN_MOTION_DDOT = 0

CCSDS_OMM_VERS = 2.0
CREATION_DATE  = 
ORIGINATOR     = 

OBJECT_NAME    = STARLINK-36374
OBJECT_ID      = 2026-005P
CENTER_NAME    = EARTH
REF_FRAME      = TEME
TIME_SYSTEM    = UTC
MEAN_ELEMENT_THEORY = SGP/SGP4

EPOCH          = 2026-01-25T14:00:01.000224
MEAN_MOTION    = 15.78129844
ECCENTRICITY   = .00012808
INCLINATION    = 42.9998
RA_OF_ASC_NODE = 127.2576
ARG_OF_PERICENTER = 289.8789
MEAN_ANOMALY   = 189.0420

EPHEMERIS_TYPE = 0
CLASSIFICATION_TYPE = U
NORAD_CAT_ID   = 67417
ELEMENT_SET_NO = 999
REV_AT_EPOCH   = 325
BSTAR          = -.99362661E-2
MEAN_MOTION_DOT = -.1536236E-1
MEAN_MOTION_DDOT = 0

CCSDS_OMM_VERS = 2.0
CREATION_DATE  = 
ORIGINATOR     = 

OBJECT_NAME    = STARLINK-36455
OBJECT_ID      = 2026-005Q
CENTER_NAME    = EARTH
REF_FRAME      = TEME
TIME_SYSTEM    = UTC
MEAN_ELEMENT_THEORY = SGP/SGP4

EPOCH          = 2026-01-25T14:00:01.000224
MEAN_MOTION    = 15.78065134
ECCENTRICITY   = .00013151
INCLINATION    = 42.9998
RA_OF_ASC_NODE = 127.2520
ARG_OF_PERICENTER = 287.3036
MEAN_ANOMALY   = 193.7642

EPHEMERIS_TYPE = 0
CLASSIFICATION_TYPE = U
NORAD_CAT_ID   = 67418
ELEMENT_SET_NO = 999
REV_AT_EPOCH   = 325
BSTAR          = -.99895867E-2
MEAN_MOTION_DOT = -.1539498E-1
MEAN_MOTION_DDOT = 0

CCSDS_OMM_VERS = 2.0
CREATION_DATE  = 
ORIGINATOR     = 

OBJECT_NAME    = STARLINK-36424
OBJECT_ID      = 2026-005R
CENTER_NAME    = EARTH
REF_FRAME      = TEME
TIME_SYSTEM    = UTC
MEAN_ELEMENT_THEORY = SGP/SGP4

EPOCH          = 2026-01-25T14:00:01.000224
MEAN_MOTION    = 15.78007922
ECCENTRICITY   = .00015172
INCLINATION    = 42.9996
RA_OF_ASC_NODE = 127.2468
ARG_OF_PERICENTER = 285.1671
MEAN_ANOMALY   = 198.0368

EPHEMERIS_TYPE = 0
CLASSIFICATION_TYPE = U
NORAD_CAT_ID   = 67419
ELEMENT_SET_NO = 999
REV_AT_EPOCH   = 325
BSTAR          = -.10095558E-1
MEAN_MOTION_DOT = -.1550384E-1
MEAN_MOTION_DDOT = 0

CCSDS_OMM_VERS = 2.0
CREATION_DATE  = 
ORIGINATOR     = 

OBJECT_NAME    = STARLINK-35564
OBJECT_ID      = 2026-005S
CENTER_NAME    = EARTH
REF_FRAME      = TEME
TIME_SYSTEM    = UTC
MEAN_ELEMENT_THEORY = SGP/SGP4

EPOCH          = 2026-01-25T14:00:01.000224
MEAN_MOTION    = 15.77973666
ECCENTRICITY   = .00012355
INCLINATION    = 42.9998
RA_OF_ASC_NODE = 127.2419
ARG_OF_PERICENTER = 292.4280
MEAN_ANOMALY   = 192.8102

EPHEMERIS_TYPE = 0
CLASSIFICATION_TYPE = U
NORAD_CAT_ID   = 67420
ELEMENT_SET_NO = 999
REV_AT_EPOCH   = 314
BSTAR          = -.10122288E-1
MEAN_MOTION_DOT = -.1551649E-1
MEAN_MOTION_DDOT = 0

CCSDS_OMM_VERS = 2.0
CREATION_DATE  = 
ORIGINATOR     = 

OBJECT_NAME    = STARLINK-36431
OBJECT_ID      = 2026-005T
CENTER_NAME    = EARTH
REF_FRAME      = TEME
TIME_SYSTEM    = UTC
MEAN_ELEMENT_THEORY = SGP/SGP4

EPOCH          = 2026-01-25T14:00:01.000224
MEAN_MOTION    = 15.77948466
ECCENTRICITY   = .00015264
INCLINATION    = 43.0000
RA_OF_ASC_NODE = 127.2366
ARG_OF_PERICENTER = 291.6361
MEAN_ANOMALY   = 195.6413

EPHEMERIS_TYPE = 0
CLASSIFICATION_TYPE = U
NORAD_CAT_ID   = 67421
ELEMENT_SET_NO = 999
REV_AT_EPOCH   = 304
BSTAR          = -.10259398E-1
MEAN_MOTION_DOT = -.1568624E-1
MEAN_MOTION_DDOT = 0

CCSDS_OMM_VERS = 2.0
CREATION_DATE  = 
ORIGINATOR     = 

OBJECT_NAME    = STARLINK-36418
OBJECT_ID      = 2026-005U
CENTER_NAME    = EARTH
REF_FRAME      = TEME
TIME_SYSTEM    = UTC
MEAN_ELEMENT_THEORY = SGP/SGP4

EPOCH          = 2026-01-25T14:00:01.000224
MEAN_MOTION    = 15.77940441
ECCENTRICITY   = .00012554
INCLINATION    = 42.9998
RA_OF_ASC_NODE = 127.2318
ARG_OF_PERICENTER = 294.5960
MEAN_ANOMALY   = 194.6241

EPHEMERIS_TYPE = 0
CLASSIFICATION_TYPE = U
NORAD_CAT_ID   = 67422
ELEMENT_SET_NO = 999
REV_AT_EPOCH   = 320
BSTAR          = -.10273007E-1
MEAN_MOTION_DOT = -.1569736E-1
MEAN_MOTION_DDOT = 0

CCSDS_OMM_VERS = 2.0
CREATION_DATE  = 
ORIGINATOR     = 

OBJECT_NAME    = STARLINK-36465
OBJECT_ID      = 2026-005V
CENTER_NAME    = EARTH
REF_FRAME      = TEME
TIME_SYSTEM    = UTC
MEAN_ELEMENT_THEORY = SGP/SGP4

EPOCH          = 2026-01-25T14:00:01.000224
MEAN_MOTION    = 15.77880332
ECCENTRICITY   = .00014864
INCLINATION    = 43.0001
RA_OF_ASC_NODE = 127.2265
ARG_OF_PERICENTER = 288.5771
MEAN_ANOMALY   = 202.7650

EPHEMERIS_TYPE = 0
CLASSIFICATION_TYPE = U
NORAD_CAT_ID   = 67423
ELEMENT_SET_NO = 999
REV_AT_EPOCH   = 299
BSTAR          = -.10343834E-1
MEAN_MOTION_DOT = -.157558E-1
MEAN_MOTION_DDOT = 0

CCSDS_OMM_VERS = 2.0
CREATION_DATE  = 
ORIGINATOR     = 

OBJECT_NAME    = STARLINK-36362
OBJECT_ID      = 2026-005W
CENTER_NAME    = EARTH
REF_FRAME      = TEME
TIME_SYSTEM    = UTC
MEAN_ELEMENT_THEORY = SGP/SGP4

EPOCH          = 2026-01-25T14:00:01.000224
MEAN_MOTION    = 15.77836032
ECCENTRICITY   = .00012966
INCLINATION    = 43.0000
RA_OF_ASC_NODE = 127.2215
ARG_OF_PERICENTER = 292.0279
MEAN_ANOMALY   = 201.3865

EPHEMERIS_TYPE = 0
CLASSIFICATION_TYPE = U
NORAD_CAT_ID   = 67424
ELEMENT_SET_NO = 999
REV_AT_EPOCH   = 325
BSTAR          = -.10430795E-1
MEAN_MOTION_DOT = -.1584183E-1
MEAN_MOTION_DDOT = 0

CCSDS_OMM_VERS = 2.0
CREATION_DATE  = 
ORIGINATOR     = 

OBJECT_NAME    = STARLINK-36447
OBJECT_ID      = 2026-005X
CENTER_NAME    = EARTH
REF_FRAME      = TEME
TIME_SYSTEM    = UTC
MEAN_ELEMENT_THEORY = SGP/SGP4

EPOCH          = 2026-01-25T14:00:01.000224
MEAN_MOTION    = 15.77774663
ECCENTRICITY   = .00014375
INCLINATION    = 43.0000
RA_OF_ASC_NODE = 127.2158
ARG_OF_PERICENTER = 278.8930
MEAN_ANOMALY   = 216.6337

EPHEMERIS_TYPE = 0
CLASSIFICATION_TYPE = U
NORAD_CAT_ID   = 67425
ELEMENT_SET_NO = 999
REV_AT_EPOCH   = 325
BSTAR          = -.10501388E-1
MEAN_MOTION_DOT = -.1589754E-1
MEAN_MOTION_DDOT = 0

CCSDS_OMM_VERS = 2.0
CREATION_DATE  = 
ORIGINATOR     = 

OBJECT_NAME    = STARLINK-36146
OBJECT_ID      = 2026-005Y
CENTER_NAME    = EARTH
REF_FRAME      = TEME
TIME_SYSTEM    = UTC
MEAN_ELEMENT_THEORY = SGP/SGP4

EPOCH          = 2026-01-25T14:00:01.000224
MEAN_MOTION    = 15.77733166
ECCENTRICITY   = .00013099
INCLINATION    = 43.0000
RA_OF_ASC_NODE = 127.2106
ARG_OF_PERICENTER = 286.8924
MEAN_ANOMALY   = 210.6908

EPHEMERIS_TYPE = 0
CLASSIFICATION_TYPE = U
NORAD_CAT_ID   = 67426
ELEMENT_SET_NO = 999
REV_AT_EPOCH   = 320
BSTAR          = -.10596212E-1
MEAN_MOTION_DOT = -.1599502E-1
MEAN_MOTION_DDOT = 0

CCSDS_OMM_VERS = 2.0
CREATION_DATE  = 
ORIGINATOR     = 

OBJECT_NAME    = STARLINK-36459
OBJECT_ID      = 2026-005Z
CENTER_NAME    = EARTH
REF_FRAME      = TEME
TIME_SYSTEM    = UTC
MEAN_ELEMENT_THEORY = SGP/SGP4

EPOCH          = 2026-01-25T14:00:01.000224
MEAN_MOTION    = 15.77700174
ECCENTRICITY   = .00012073
INCLINATION    = 42.9998
RA_OF_ASC_NODE = 127.2051
ARG_OF_PERICENTER = 287.6951
MEAN_ANOMALY   = 211.9223

EPHEMERIS_TYPE = 0
CLASSIFICATION_TYPE = U
NORAD_CAT_ID   = 67427
ELEMENT_SET_NO = 999
REV_AT_EPOCH   = 317
BSTAR          = -.10698068E-1
MEAN_MOTION_DOT = -.1642827E-1
MEAN_MOTION_DDOT = 0

